{
  "norad_id": 58971,
  "name": "STARLINK-31333",
  "history": [
    {
      "epoch": "2026-03-28T17:19:17.383008",
      "apogee_km": 475.9786624925164,
      "perigee_km": 474.4777755095547,
      "latitude_deg": -53.14221982829712,
      "longitude_deg": 146.38598112016916,
      "semi_major_axis_km": 6853.365219001035,
      "eccentricity": 0.0001095,
      "inclination_deg": 53.1583,
      "raan_deg": 195.7521,
      "arg_perigee_deg": 78.3411,
      "mean_anomaly_deg": 281.7712,
      "mean_motion_rev_day": 15.30195596
    }
  ]
}