{"fetched_at":"2026-03-29T16:36:15Z","count":15609,"tles":[{"name":"STARLINK-31333","line1":"1 58971U 24031G   26087.72172897  .00000027  00000+0  13032-4 0  9997","line2":"2 58971  53.1583 195.7521 0001095  78.3411 281.7712 15.30195596119627","category":"Starlink"}]}